EUTELSAT HOTBIRD 13F    
1 54048U 22134A   26192.36183558  .00000093  00000+0  00000+0 0  9992
2 54048   0.0527 288.2883 0001894  64.0246  80.2271  1.00270860 13615
LDPE-2                  
1 54219U 22144A   26192.37892117  .00000050  00000+0  00000+0 0  9995
2 54219   5.6687  63.4472 0002392 110.5002 117.4664  1.00542496 12087
EUTELSAT HOTBIRD 13G    
1 54225U 22146A   26192.35359970  .00000093  00000+0  00000+0 0  9994
2 54225   0.0506 221.5233 0002141 324.5062 243.5272  1.00270372  7700
ZHONGXING-19            
1 54230U 22148A   26192.45739301 -.00000076  00000+0  00000+0 0  9995
2 54230   0.0195 294.0376 0002938 204.3073 118.8685  1.00270491 13626
GALAXY 31 (G-31)        
1 54243U 22153A   26192.46964631  .00000000  00000+0  00000+0 0  9998
2 54243   0.0233  53.1021 0000920  65.2373 219.1043  1.00270038  7375
GALAXY 32 (G-32)        
1 54244U 22153B   26192.26174808 -.00000167  00000+0  00000+0 0  9991
2 54244   0.0115  41.9388 0001457   4.2849 246.1793  1.00271069 13388
EUTELSAT 10B            
1 54259U 22157A   26192.36225226  .00000074  00000+0  00000+0 0  9999
2 54259   0.0608  95.6005 0001665  17.8010 316.2721  1.00270308 13266
GALAXY 35 (G-35)        
1 54741U 22170A   26192.47519301  .00000000  00000+0  00000+0 0  9991
2 54741   0.0200  45.0334 0001862  71.0414 251.2751  1.00269383 13131
GALAXY 36 (G-36)        
1 54742U 22170B   26192.47605968 -.00000179  00000+0  00000+0 0  9995
2 54742   0.0278 112.8696 0002373 346.7440 272.1537  1.00271220 13014
METEOSAT-12 (MTG-I1)    
1 54743U 22170C   26192.36225226 -.00000002  00000+0  00000+0 0  9994
2 54743   0.7209  19.0127 0003789  82.9950 317.4095  1.00266926 13222
SHIJIAN-23 (SJ-23)      
1 55131U 23002A   26191.66440205 -.00000337  00000+0  00000+0 0  9990
2 55131   3.7747  78.0177 0003409 270.6720 311.3478  1.00078758 12742
APSTAR-6E               
1 55239U 23005A   26192.63717748 -.00000313  00000+0  00000+0 0  9993
2 55239   0.0556 234.0324 0002025 334.1463  84.7657  1.00267652 18930
USA 342                 
1 55263U 23008A   26190.28864118  .00000000  00000+0  00000+0 0  9998
2 55263   0.0052 352.2306 0000262   7.3445  55.4773  1.00269378 12734
LDPE-3A                 
1 55264U 23008B   26192.49141954 -.00000280  00000+0  00000+0 0  9991
2 55264   2.4084  81.3642 0001517  79.1799  98.4976  0.99151106 12055
ELEKTRO-L 4             
1 55506U 23016A   26191.73765606 -.00000049  00000+0  00000+0 0  9994
2 55506   0.1060 129.4508 0001240  46.9384 183.6096  1.00272327 12572
AMAZONAS NEXUS          
1 55508U 23017A   26192.48151970 -.00000277  00000+0  00000+0 0  9996
2 55508   0.0349  40.9328 0004418  43.6565 317.1451  1.00269292  7283
ZHONGXING-26            
1 55686U 23023A   26192.54793381 -.00000348  00000+0  00000+0 0  9994
2 55686   0.0660  71.1378 0003272  38.5301 142.1284  1.00267374 12471
LUCH-5X (OLYMP-K 2)     
1 55841U 23031A   26191.72173648  .00000042  00000+0  00000+0 0  9993
2 55841   0.0310  93.2143 0000888 154.0165   3.2099  1.00271731 12173
GAOFEN-13 02            
1 55912U 23036A   26192.49141954 -.00000213  00000+0  00000+0 0  9998
2 55912   1.0260   4.0864 0003716 336.8547 273.5570  1.00275077 12335
SES-18                  
1 55970U 23038A   26192.47319965 -.00000095  00000+0  00000+0 0  9999
2 55970   0.0491 264.6373 0000700 308.1667 143.8362  1.00271318 12341
SES-19                  
1 55971U 23038B   26192.47475235  .00000093  00000+0  00000+0 0  9990
2 55971   0.0224 313.5944 0001617 168.4150 203.3896  1.00272572 12332
INTELSAT 40E (IS-40E)   
1 56174U 23052A   26192.26174808 -.00000167  00000+0  00000+0 0  9994
2 56174   0.0142  82.6904 0002209  61.7241 147.9886  1.00271502 12065
VIASAT-3 F1             
1 56370U 23060A   26192.47605968  .00000000  00000+0  00000+0 0  9995
2 56370   0.0165  21.0165 0001004  85.7316 265.0427  1.00269096 11679
ARCTURUS                
1 56371U 23060B   26192.51245931 -.00000312  00000+0  00000+0 0  9998
2 56371   2.8353  79.6397 0000786 133.9665 355.0218  1.00596172 11704
GS-1                    
1 56372U 23060C   26191.79847976 -.00000217  00000+0  00000+0 0  9999
2 56372   2.7847  79.5544 0003476 281.4869 304.4925  1.00267978  7773
BEIDOU-3 G4             
1 56564U 23066A   26192.48311497 -.00000274  00000+0  00000+0 0  9992
2 56564   0.4634 337.7815 0004866 188.0329  77.5375  1.00273784 11631
ARABSAT-7B (BADR-8)     
1 56757U 23075A   26192.49867978  .00000150  00000+0  00000+0 0  9999
2 56757   0.0725  28.9228 0003350   1.8591 104.1468  1.00270583 11363
NVS-01 (IRNSS-1J)       
1 56759U 23076A   26192.51930600 -.00000329  00000+0  00000+0 0  9997
2 56759   2.1109 243.2586 0003511   7.3794 355.2354  1.00266386 11367
NUSANTARA TIGA (SATRIA) 
1 57045U 23086A   26191.88097181 -.00000227  00000+0  00000+0 0  9991
2 57045   0.0345   7.8138 0002322 333.4922  50.6444  1.00267015  9999
H2SAT (HEINRICH HERTZ)  
1 57213U 23093A   26192.36225226  .00000008  00000+0  00000+0 0  9999
2 57213   0.0138  97.5985 0000365  46.0458 276.7423  1.00269979 11158
SYRACUSE 4B             
1 57214U 23093B   26192.42104436  .00000000  00000+0  00000+0 0  9998
2 57214   0.0289  48.6488 0000477 208.6755 177.1240  1.00269495  7206
JUPITER 3 (ECHOSTAR 24) 
1 57479U 23108A   26191.46347704  .00000000  00000+0  00000+0 0  9998
2 57479   0.0227  41.8846 0001144  62.5557 255.5724  1.00270144 10882
