OBJECT_NAME,OBJECT_ID,EPOCH,MEAN_MOTION,ECCENTRICITY,INCLINATION,RA_OF_ASC_NODE,ARG_OF_PERICENTER,MEAN_ANOMALY,EPHEMERIS_TYPE,CLASSIFICATION_TYPE,NORAD_CAT_ID,ELEMENT_SET_NO,REV_AT_EPOCH,BSTAR,MEAN_MOTION_DOT,MEAN_MOTION_DDOT
EUTELSAT HOTBIRD 13F,2022-134A,2026-07-11T08:41:02.594112,1.00270860,.0001894,0.0527,288.2883,64.0246,80.2271,0,U,54048,999,1361,0,.93E-6,0
LDPE-2,2022-144A,2026-07-11T09:05:38.789088,1.00542496,.0002392,5.6687,63.4472,110.5002,117.4664,0,U,54219,999,1208,0,.5E-6,0
EUTELSAT HOTBIRD 13G,2022-146A,2026-07-11T08:29:11.014080,1.00270372,.0002141,0.0506,221.5233,324.5062,243.5272,0,U,54225,999,770,0,.93E-6,0
ZHONGXING-19,2022-148A,2026-07-11T10:58:38.756064,1.00270491,.0002938,0.0195,294.0376,204.3073,118.8685,0,U,54230,999,1362,0,-.76E-6,0
GALAXY 31 (G-31),2022-153A,2026-07-11T11:16:17.441184,1.00270038,.000092,0.0233,53.1021,65.2373,219.1043,0,U,54243,999,737,0,0,0
GALAXY 32 (G-32),2022-153B,2026-07-11T06:16:55.034112,1.00271069,.0001457,0.0115,41.9388,4.2849,246.1793,0,U,54244,999,1338,0,-.167E-5,0
EUTELSAT 10B,2022-157A,2026-07-11T08:41:38.595264,1.00270308,.0001665,0.0608,95.6005,17.8010,316.2721,0,U,54259,999,1326,0,.74E-6,0
GALAXY 35 (G-35),2022-170A,2026-07-11T11:24:16.676064,1.00269383,.0001862,0.0200,45.0334,71.0414,251.2751,0,U,54741,999,1313,0,0,0
GALAXY 36 (G-36),2022-170B,2026-07-11T11:25:31.556352,1.00271220,.0002373,0.0278,112.8696,346.7440,272.1537,0,U,54742,999,1301,0,-.179E-5,0
METEOSAT-12 (MTG-I1),2022-170C,2026-07-11T08:41:38.595264,1.00266926,.0003789,0.7209,19.0127,82.9950,317.4095,0,U,54743,999,1322,0,-.2E-7,0
SHIJIAN-23 (SJ-23),2023-002A,2026-07-10T15:56:44.337120,1.00078758,.0003409,3.7747,78.0177,270.6720,311.3478,0,U,55131,999,1274,0,-.337E-5,0
APSTAR-6E,2023-005A,2026-07-11T15:17:32.134272,1.00267652,.0002025,0.0556,234.0324,334.1463,84.7657,0,U,55239,999,1893,0,-.313E-5,0
USA 342,2023-008A,2026-07-09T06:55:38.597952,1.00269378,.0000262,0.0052,352.2306,7.3445,55.4773,0,U,55263,999,1273,0,0,0
LDPE-3A,2023-008B,2026-07-11T11:47:38.648256,0.99151106,.0001517,2.4084,81.3642,79.1799,98.4976,0,U,55264,999,1205,0,-.28E-5,0
ELEKTRO-L 4,2023-016A,2026-07-10T17:42:13.483584,1.00272327,.000124,0.1060,129.4508,46.9384,183.6096,0,U,55506,999,1257,0,-.49E-6,0
AMAZONAS NEXUS,2023-017A,2026-07-11T11:33:23.302080,1.00269292,.0004418,0.0349,40.9328,43.6565,317.1451,0,U,55508,999,728,0,-.277E-5,0
ZHONGXING-26,2023-023A,2026-07-11T13:09:01.481184,1.00267374,.0003272,0.0660,71.1378,38.5301,142.1284,0,U,55686,999,1247,0,-.348E-5,0
LUCH-5X (OLYMP-K 2),2023-031A,2026-07-10T17:19:18.031872,1.00271731,.0000888,0.0310,93.2143,154.0165,3.2099,0,U,55841,999,1217,0,.42E-6,0
GAOFEN-13 02,2023-036A,2026-07-11T11:47:38.648256,1.00275077,.0003716,1.0260,4.0864,336.8547,273.5570,0,U,55912,999,1233,0,-.213E-5,0
SES-18,2023-038A,2026-07-11T11:21:24.449760,1.00271318,.00007,0.0491,264.6373,308.1667,143.8362,0,U,55970,999,1234,0,-.95E-6,0
SES-19,2023-038B,2026-07-11T11:23:38.603040,1.00272572,.0001617,0.0224,313.5944,168.4150,203.3896,0,U,55971,999,1233,0,.93E-6,0
INTELSAT 40E (IS-40E),2023-052A,2026-07-11T06:16:55.034112,1.00271502,.0002209,0.0142,82.6904,61.7241,147.9886,0,U,56174,999,1206,0,-.167E-5,0
VIASAT-3 F1,2023-060A,2026-07-11T11:25:31.556352,1.00269096,.0001004,0.0165,21.0165,85.7316,265.0427,0,U,56370,999,1167,0,0,0
ARCTURUS,2023-060B,2026-07-11T12:17:56.484384,1.00596172,.0000786,2.8353,79.6397,133.9665,355.0218,0,U,56371,999,1170,0,-.312E-5,0
GS-1,2023-060C,2026-07-10T19:09:48.651264,1.00267978,.0003476,2.7847,79.5544,281.4869,304.4925,0,U,56372,999,777,0,-.217E-5,0
BEIDOU-3 G4,2023-066A,2026-07-11T11:35:41.133408,1.00273784,.0004866,0.4634,337.7815,188.0329,77.5375,0,U,56564,999,1163,0,-.274E-5,0
ARABSAT-7B (BADR-8),2023-075A,2026-07-11T11:58:05.932992,1.00270583,.000335,0.0725,28.9228,1.8591,104.1468,0,U,56757,999,1136,0,.15E-5,0
NVS-01 (IRNSS-1J),2023-076A,2026-07-11T12:27:48.038400,1.00266386,.0003511,2.1109,243.2586,7.3794,355.2354,0,U,56759,999,1136,0,-.329E-5,0
NUSANTARA TIGA (SATRIA),2023-086A,2026-07-10T21:08:35.964384,1.00267015,.0002322,0.0345,7.8138,333.4922,50.6444,0,U,57045,999,999,0,-.227E-5,0
H2SAT (HEINRICH HERTZ),2023-093A,2026-07-11T08:41:38.595264,1.00269979,.0000365,0.0138,97.5985,46.0458,276.7423,0,U,57213,999,1115,0,.8E-7,0
SYRACUSE 4B,2023-093B,2026-07-11T10:06:18.232704,1.00269495,.0000477,0.0289,48.6488,208.6755,177.1240,0,U,57214,999,720,0,0,0
JUPITER 3 (ECHOSTAR 24),2023-108A,2026-07-10T11:07:24.416256,1.00270144,.0001144,0.0227,41.8846,62.5557,255.5724,0,U,57479,999,1088,0,0,0
